{
  "norad_id": 68639,
  "name": "QIANFAN GROUP 7 OBJECT D",
  "history": [
    {
      "epoch": "2026-04-16T20:58:24.052800Z",
      "apogee_km": 832.4521042035249,
      "perigee_km": 811.7427898869328,
      "latitude_deg": -2.4156446018800934e-05,
      "longitude_deg": 168.0253363323312,
      "height_km": 835.4937815180467,
      "semi_major_axis_km": 7200.234447045228,
      "eccentricity": 0.0014381,
      "inclination_deg": 88.9911,
      "raan_deg": 327.6409,
      "arg_perigee_deg": 183.1926,
      "mean_anomaly_deg": 176.9175,
      "mean_motion_rev_day": 14.20963117
    }
  ]
}