QIANFAN GROUP 7 OBJECT D
1 68639U 26075D   26106.87388951  .00000450  00000+0  20112-3 0  9993
2 68639  88.9911 327.6409 0014381 183.1926 176.9175 14.20963117  1324
